NORAD_CAT_ID,OBJECT_NAME,OBJECT_TYPE,EPOCH,MEAN_MOTION,ECCENTRICITY,INCLINATION,RA_OF_ASC_NODE,ARG_OF_PERICENTER,MEAN_ANOMALY,BSTAR,MEAN_MOTION_DOT,MEAN_MOTION_DDOT,TLE_LINE0,TLE_LINE1,TLE_LINE2,SEMIMAJOR_AXIS,PERIOD,APOGEE,PERIGEE,DECAYED
52582.0,STARLINK-3886,PAYLOAD,2023-12-26 14:14:24,15.08841276,0.0001371,53.217,128.8487,103.0873,257.0272,-2.5677e-05,-6.97e-06,0.0,0 STARLINK-3886,1 52582U 22051AY  23360.59333492 -.00000697  00000-0 -25677-4 0  9999,2 52582  53.2170 128.8487 0001371 103.0873 257.0272 15.08841276 90190,6917.876,95.437,540.69,538.793,0.0
52582.0,STARLINK-3886,PAYLOAD,2023-12-26 15:49:47,15.08842504,0.0001331,53.2171,128.5511,103.3533,256.7607,-4.5067e-06,-3.6e-06,0.0,0 STARLINK-3886,1 52582U 22051AY  23360.65957451 -.00000360  00000-0 -45067-5 0  9996,2 52582  53.2171 128.5511 0001331 103.3533 256.7607 15.08842504 90270,6917.873,95.437,540.659,538.817,0.0
52582.0,STARLINK-3886,PAYLOAD,2023-12-27 14:05:11,15.08841331,0.0001291,53.2169,124.3904,94.726,265.388,5.2064e-05,5.41e-06,0.0,0 STARLINK-3886,1 52582U 22051AY  23361.58693609  .00000541  00000-0  52064-4 0  9994,2 52582  53.2169 124.3904 0001291  94.7260 265.3880 15.08841331 90346,6917.876,95.437,540.634,538.848,0.0
52582.0,STARLINK-3886,PAYLOAD,2023-12-28 12:20:35,15.08835525,0.0001377,53.2169,120.2285,93.3672,266.7478,0.00010458,1.377e-05,0.0,0 STARLINK-3886,1 52582U 22051AY  23362.51430123  .00001377  00000-0  10458-3 0  9996,2 52582  53.2169 120.2285 0001377  93.3672 266.7478 15.08835525 90559,6917.894,95.438,540.712,538.806,0.0
52582.0,STARLINK-3886,PAYLOAD,2023-12-28 13:55:58,15.08837989,0.0001462,53.2173,119.9314,74.3609,285.7544,0.00010901,1.447e-05,0.0,0 STARLINK-3886,1 52582U 22051AY  23362.58054074  .00001447  00000-0  10901-3 0  9991,2 52582  53.2173 119.9314 0001462  74.3609 285.7544 15.08837989 90490,6917.887,95.438,540.763,538.74,0.0
52582.0,STARLINK-3886,PAYLOAD,2023-12-28 15:31:21,15.08839856,0.0001449,53.2173,119.6337,78.8393,281.2761,0.000126,1.718e-05,0.0,0 STARLINK-3886,1 52582U 22051AY  23362.64677897  .00001718  00000-0  12600-3 0  9991,2 52582  53.2173 119.6337 0001449  78.8393 281.2761 15.08839856 90505,6917.881,95.438,540.748,538.743,0.0
52582.0,STARLINK-3886,PAYLOAD,2023-12-29 13:46:45,15.0883908,0.0001562,53.2166,115.4709,74.9129,285.2035,8.5303e-05,1.07e-05,0.0,0 STARLINK-3886,1 52582U 22051AY  23363.57414116  .00001070  00000-0  85303-4 0  9999,2 52582  53.2166 115.4709 0001562  74.9129 285.2035 15.08839080 90646,6917.883,95.438,540.829,538.668,0.0
52582.0,STARLINK-3886,PAYLOAD,2023-12-29 15:22:08,15.0884608,0.0001921,53.2175,115.1789,53.8211,306.2959,3.5317e-05,2.74e-06,0.0,0 STARLINK-3886,1 52582U 22051AY  23363.64037887  .00000274  00000-0  35317-4 0  9998,2 52582  53.2175 115.1789 0001921  53.8211 306.2959 15.08846080 90724,6917.862,95.437,541.056,538.398,0.0
52582.0,STARLINK-3886,PAYLOAD,2023-12-30 13:37:32,15.08847338,0.0001384,53.2168,111.0088,91.8657,268.2494,6.7108e-05,7.8e-06,0.0,0 STARLINK-3886,1 52582U 22051AY  23364.56773483  .00000780  00000-0  67108-4 0  9994,2 52582  53.2168 111.0088 0001384  91.8657 268.2494 15.08847338 90797,6917.858,95.437,540.68,538.766,0.0
52582.0,STARLINK-3886,PAYLOAD,2023-12-31 11:52:57,15.08837075,0.0001604,53.2163,106.8487,65.3041,294.8118,1.763e-05,-7e-08,0.0,0 STARLINK-3886,1 52582U 22051AY  23365.49510462 -.00000007  00000-0  17630-4 0  9991,2 52582  53.2163 106.8487 0001604  65.3041 294.8118 15.08837075 91005,6917.889,95.438,540.864,538.645,0.0
52582.0,STARLINK-3886,PAYLOAD,2023-12-31 13:28:20,15.08837359,0.0001596,53.2165,106.5515,67.6972,292.4189,2.0839e-05,4.4e-07,0.0,0 STARLINK-3886,1 52582U 22051AY  23365.56134430  .00000044  00000-0  20839-4 0  9991,2 52582  53.2165 106.5515 0001596  67.6972 292.4189 15.08837359 90943,6917.888,95.438,540.858,538.649,0.0
52582.0,STARLINK-3886,PAYLOAD,2024-01-01 10:08:20,15.08843645,0.0001493,53.2165,102.685,69.7371,290.3782,4.6902e-05,4.59e-06,0.0,0 STARLINK-3886,1 52582U 22051AY  24001.42245833  .00000459  00000-0  46902-4 0  9993,2 52582  53.2165 102.6850 0001493  69.7371 290.3782 15.08843645 91148,6917.869,95.437,540.767,538.701,0.0
52582.0,STARLINK-3886,PAYLOAD,2024-01-01 13:19:04,15.08867453,0.0001529,53.2166,102.0905,75.4483,284.6679,0.00024531,3.621e-05,0.0,0 STARLINK-3886,1 52582U 22051AY  24001.55491780  .00003621  00000-0  24531-3 0  9998,2 52582  53.2166 102.0905 0001529  75.4483 284.6679 15.08867453 91090,6917.796,95.436,540.719,538.604,0.0
52582.0,STARLINK-3886,PAYLOAD,2024-01-01 16:29:50,15.08870117,0.000153,53.2171,101.4921,101.248,258.8684,0.00021006,3.059e-05,0.0,0 STARLINK-3886,1 52582U 22051AY  24001.68739305  .00003059  00000-0  21006-3 0  9999,2 52582  53.2171 101.4921 0001530 101.2480 258.8684 15.08870117 91184,6917.788,95.436,540.712,538.595,0.0
52582.0,STARLINK-3886,PAYLOAD,2024-01-02 11:34:31,15.08830388,0.0001234,53.2176,97.9256,89.2108,270.9025,-2.4139e-05,-6.72e-06,0.0,0 STARLINK-3886,1 52582U 22051AY  24002.48230624 -.00000672  00000-0 -24139-4 0  9999,2 52582  53.2176  97.9256 0001234  89.2108 270.9025 15.08830388 91306,6917.91,95.438,540.628,538.921,0.0
52582.0,STARLINK-3886,PAYLOAD,2024-01-03 11:25:18,15.08846608,0.0001205,53.2174,93.4659,89.1301,270.9829,-0.00020316,-3.52e-05,0.0,0 STARLINK-3886,1 52582U 22051AY  24003.47590763 -.00003520  00000-0 -20316-3 0  9999,2 52582  53.2174  93.4659 0001205  89.1301 270.9829 15.08846608 91454,6917.86,95.437,540.559,538.892,0.0
52582.0,STARLINK-3886,PAYLOAD,2024-01-03 13:00:41,15.0885085,0.0001231,53.2174,93.1675,99.9239,260.1892,-0.00018398,-3.216e-05,0.0,0 STARLINK-3886,1 52582U 22051AY  24003.54214361 -.00003216  00000-0 -18398-3 0  9993,2 52582  53.2174  93.1675 0001231  99.9239 260.1892 15.08850850 91395,6917.847,95.437,540.564,538.861,0.0
52582.0,STARLINK-3886,PAYLOAD,2024-01-04 11:16:04,15.08846545,0.000115,53.2173,89.0045,118.2591,241.8518,0.00022163,3.242e-05,0.0,0 STARLINK-3886,1 52582U 22051AY  24004.46949473  .00003242  00000-0  22163-3 0  9996,2 52582  53.2173  89.0045 0001150 118.2591 241.8518 15.08846545 91606,6917.86,95.437,540.521,538.93,0.0
52582.0,STARLINK-3886,PAYLOAD,2024-01-04 14:26:50,15.08846449,0.0001015,53.2172,88.4099,95.9409,264.1699,0.00019074,2.75e-05,0.0,0 STARLINK-3886,1 52582U 22051AY  24004.60197701  .00002750  00000-0  19074-3 0  9991,2 52582  53.2172  88.4099 0001015  95.9409 264.1699 15.08846449 91551,6917.861,95.437,540.428,539.024,0.0
52582.0,STARLINK-3886,PAYLOAD,2024-01-05 12:42:16,15.08825162,0.0001348,53.2178,84.2478,79.919,280.1955,-3.2749e-05,-8.09e-06,0.0,0 STARLINK-3886,1 52582U 22051AY  24005.52935249 -.00000809  00000-0 -32749-4 0  9990,2 52582  53.2178  84.2478 0001348  79.9190 280.1955 15.08825162 91765,6917.926,95.438,540.723,538.858,0.0
52582.0,STARLINK-3886,PAYLOAD,2024-01-05 14:17:39,15.08827037,0.0001319,53.2181,83.9486,89.2226,270.8917,-3.0331e-05,-7.7e-06,0.0,0 STARLINK-3886,1 52582U 22051AY  24005.59559103 -.00000770  00000-0 -30331-4 0  9990,2 52582  53.2181  83.9486 0001319  89.2226 270.8917 15.08827037 91707,6917.92,95.438,540.697,538.873,0.0
52582.0,STARLINK-3886,PAYLOAD,2024-01-06 12:33:02,15.08849422,0.0001354,53.2179,79.7853,89.395,270.7197,-5.5654e-05,-1.174e-05,0.0,0 STARLINK-3886,1 52582U 22051AY  24006.52294315 -.00001174  00000-0 -55654-4 0  9999,2 52582  53.2179  79.7853 0001354  89.3950 270.7197 15.08849422 91913,6917.852,95.437,540.653,538.78,0.0
52582.0,STARLINK-3886,PAYLOAD,2024-01-07 04:26:54,15.08819729,0.0001567,53.2178,76.8154,80.9163,279.2006,0.00023832,3.505e-05,0.0,0 STARLINK-3886,1 52582U 22051AY  24007.18534796  .00003505  00000-0  23832-3 0  9992,2 52582  53.2178  76.8154 0001567  80.9163 279.2006 15.08819729 92015,6917.942,95.439,540.891,538.723,0.0
52582.0,STARLINK-3886,PAYLOAD,2024-01-07 10:48:26,15.08831344,0.0001775,53.2176,75.6268,72.1063,288.0122,0.0001989,2.878e-05,0.0,0 STARLINK-3886,1 52582U 22051AY  24007.45030798  .00002878  00000-0  19890-3 0  9996,2 52582  53.2176  75.6268 0001775  72.1063 288.0122 15.08831344 91988,6917.907,95.438,541.0,538.544,0.0
52582.0,STARLINK-3886,PAYLOAD,2024-01-08 04:17:41,15.08816365,0.0002035,53.218,72.3582,68.4513,291.6696,0.00033023,4.968e-05,0.0,0 STARLINK-3886,1 52582U 22051AY  24008.17895662  .00004968  00000-0  33023-3 0  9991,2 52582  53.2180  72.3582 0002035  68.4513 291.6696 15.08816365 92167,6917.953,95.439,541.225,538.41,0.0
52582.0,STARLINK-3886,PAYLOAD,2024-01-08 10:39:14,15.08833147,0.0001743,53.219,71.1685,67.9297,292.188,0.00012064,1.632e-05,0.0,0 STARLINK-3886,1 52582U 22051AY  24008.44391402  .00001632  00000-0  12064-3 0  9991,2 52582  53.2190  71.1685 0001743  67.9297 292.1880 15.08833147 92200,6917.901,95.438,540.972,538.561,0.0
52582.0,STARLINK-3886,PAYLOAD,2024-01-08 23:22:18,15.08841276,0.0001683,53.219,68.7902,79.0359,281.0822,0.00010288,1.35e-05,0.0,0 STARLINK-3886,1 52582U 22051AY  24008.97382982  .00001350  00000-0  10288-3 0  9995,2 52582  53.2190  68.7902 0001683  79.0359 281.0822 15.08841276 92283,6917.876,95.437,540.906,538.577,0.0
52582.0,STARLINK-3886,PAYLOAD,2024-01-09 13:40:46,15.08848455,0.0001628,53.2166,66.1053,97.1915,262.9262,5.3777e-05,5.68e-06,0.0,0 STARLINK-3886,1 52582U 22051AY  24009.56998493  .00000568  00000-0  53777-4 0  9992,2 52582  53.2166  66.1053 0001628  97.1915 262.9262 15.08848455 92308,6917.855,95.437,540.846,538.593,0.0
52582.0,STARLINK-3886,PAYLOAD,2024-01-10 03:59:16,15.08829245,0.0001662,53.2161,63.4293,105.0398,255.0778,2.3858e-05,9.2e-07,0.0,0 STARLINK-3886,1 52582U 22051AY  24010.16615878  .00000092  00000-0  23858-4 0  9992,2 52582  53.2161  63.4293 0001662 105.0398 255.0778 15.08829245 92469,6917.913,95.438,540.928,538.629,0.0
52582.0,STARLINK-3886,PAYLOAD,2024-01-10 08:45:25,15.08833402,0.0001734,53.218,62.5445,69.899,290.2189,4.403e-05,4.13e-06,0.0,0 STARLINK-3886,1 52582U 22051AY  24010.36487884  .00000413  00000-0  44030-4 0  9990,2 52582  53.2180  62.5445 0001734  69.8990 290.2189 15.08833402 92427,6917.901,95.438,540.965,538.566,0.0
